{"type":"FeatureCollection","features":[{"type":"Feature","geometry":{"type":"Polygon","coordinates":[[[121.04635974700011,14.587226228000077],[121.04640251800004,14.587464590000025],[121.04648041700011,14.587839476000056],[121.04659239500006,14.588311735000048],[121.04664595100007,14.588647672000036],[121.04664595100007,14.588706096000067],[121.04717981700003,14.589088196000034],[121.04721001500002,14.589162288000068],[121.04721362700002,14.589199571000051],[121.04721341600009,14.589272823000044],[121.04721851800002,14.589361250000024],[121.04715899900009,14.589408865000053],[121.04710798300005,14.589453079000066],[121.0470671700001,14.589495593000038],[121.04683079500001,14.589534705000062],[121.04674406800007,14.589538106000077],[121.04671345800011,14.589553411000054],[121.04659782200008,14.589587422000022],[121.0463155330001,14.589682652000022],[121.04621860200007,14.58970645900007],[121.04619309400005,14.589745572000027],[121.04623220700012,14.589862909000033],[121.04628152200007,14.58994453400004],[121.0463240360001,14.590017657000033],[121.04639545800001,14.590049968000073],[121.04647538300003,14.590065272000061],[121.04651959700004,14.590063572000076],[121.04657231400006,14.590068673000076],[121.04659102000005,14.590066973000035],[121.04660462400011,14.590082278000068],[121.04659442100001,14.590167305000023],[121.04659102000005,14.590242128000057],[121.04658591800012,14.590396877000046],[121.0465689130001,14.590458096000077],[121.04653830300003,14.590480203000027],[121.04649579000011,14.590497209000034],[121.04645327600008,14.590529519000029],[121.04630533000011,14.590629850000028],[121.04624411100008,14.590674064000041],[121.04619989700006,14.590714877000039],[121.04615398200008,14.590755690000037],[121.04610636700011,14.590759091000052],[121.04602644200008,14.590784599000074],[121.04597882700011,14.590813508000053],[121.04582918000006,14.59092404300003],[121.04569653800002,14.59101417100004],[121.04561066100007,14.591046907000077],[121.04554434000011,14.591078367000023],[121.04549332400006,14.591094522000049],[121.0454363560001,14.591091971000026],[121.04523909400007,14.591027351000037],[121.04520848400011,14.591020548000074],[121.0451736230001,14.591019698000025],[121.04514981600005,14.591029051000078],[121.04513961200007,14.591045206000047],[121.04513961200007,14.591073265000034],[121.04514301300003,14.591106426000067],[121.04515300000003,14.591141976000074],[121.04518440900006,14.591222920000064],[121.04521181300004,14.591277728000023],[121.04523693300007,14.591318833000059],[121.04518440900006,14.591339386000072],[121.04514102000007,14.591371357000071],[121.04510904900008,14.591417030000059],[121.04507936200002,14.591453568000077],[121.04502912200007,14.591567750000024],[121.04499943500002,14.591631692000021],[121.04496518000008,14.591736739000055],[121.04494234400011,14.591800681000052],[121.04484294700001,14.591913617000046],[121.04480075800006,14.591962819000059],[121.04461578300004,14.592195751000077],[121.04459523100002,14.592271111000059],[121.04460436500005,14.592337336000071],[121.04466374000003,14.592444667000052],[121.04468886000006,14.592488056000036],[121.04472311400002,14.592540580000048],[121.04477335400009,14.592577118000065],[121.04481674400006,14.59261594000003],[121.04487155100003,14.592684449000046],[121.04497203100004,14.592796348000036],[121.04498573300009,14.592858006000029],[121.04500400200004,14.592885409000075],[121.0451501550001,14.593090937000056],[121.04515928900003,14.593129759000021],[121.04520267900011,14.593193701000075],[121.0452620530001,14.593307883000023],[121.04523693300007,14.593369541000072],[121.04520496200007,14.593419781000023],[121.04512731800003,14.593454036000026],[121.04490808900005,14.593479156000058],[121.04481674400006,14.593483723000077],[121.04468429300005,14.593449468000074],[121.04456782700004,14.593431199000065],[121.04443080900012,14.593415214000061],[121.0443257610001,14.593447185000059],[121.0441818920001,14.593511127000056],[121.04396723000002,14.593693818000077],[121.04389415300011,14.593746341000042],[121.04378453900006,14.593817134000062],[121.0435567290001,14.593996203000074],[121.04345451500001,14.593989030000046],[121.04338816600011,14.593953166000063],[121.04329671200003,14.593929854000066],[121.04320229600012,14.593921512000065],[121.04309407900007,14.593911922000075],[121.04299365800011,14.593902956000022],[121.04288785800009,14.593874264000021],[121.04281433600011,14.593822261000071],[121.04274619400007,14.593761292000067],[121.04269060400009,14.593746946000067],[121.04244093800003,14.593664690000026],[121.04252397000005,14.593438050000032],[121.04191423900011,14.593248508000045],[121.04126796900005,14.593033846000026],[121.04138233300012,14.592731001000061],[121.04152387100009,14.592324078000047],[121.0415911020001,14.592111770000031],[121.04108595500009,14.592133623000052],[121.04053948800004,14.592140943000061],[121.03996857800007,14.592152361000046],[121.0393169890001,14.592172066000046],[121.03892186500002,14.592178036000064],[121.03831683100009,14.592184007000071],[121.03773031900005,14.59208847900004],[121.03708206900001,14.591891453000073],[121.03684746400006,14.591772043000049],[121.03567444000009,14.591210816000057],[121.03479616700008,14.590782988000058],[121.03468091900004,14.590720646000022],[121.03489850900007,14.590518380000049],[121.03493222000009,14.590447893000032],[121.0350027070001,14.59036208200007],[121.03504254800009,14.590306919000056],[121.03508851800007,14.590202721000026],[121.03512835800007,14.590165945000024],[121.03522029800001,14.590181268000038],[121.03526626700011,14.590110781000021],[121.03532143100006,14.590052553000078],[121.03535820700006,14.589988195000046],[121.03536127100006,14.589926902000059],[121.03535514200007,14.589874803000043],[121.03536127100006,14.589825769000072],[121.03538578900009,14.589770605000069],[121.03541643500012,14.589733829000068],[121.03547466300006,14.589718506000054],[121.03553902100009,14.589739959000042],[121.03559418500004,14.589773670000056],[121.03566160700007,14.589804316000027],[121.03571064100004,14.589804316000027],[121.03577806400006,14.589792058000057],[121.03586080900004,14.589755282000056],[121.03589758500004,14.589690924000024],[121.03591903800009,14.589635760000021],[121.03592516700007,14.589543821000063],[121.03591889300003,14.589404220000063],[121.03591290800011,14.589271067000027],[121.03589145600006,14.589237356000069],[121.03587000300001,14.589145417000054],[121.0358393570001,14.589114770000037],[121.03575354700001,14.589068800000064],[121.03574741700004,14.589028960000064],[121.03577499900007,14.588986055000078],[121.03581177500007,14.588955408000061],[121.03593436100005,14.58889718000006],[121.03601404200003,14.588860404000059],[121.03611824000006,14.588799111000071],[121.03616114500005,14.588759271000072],[121.03635421800004,14.588553939000064],[121.03646148100006,14.588511034000021],[121.03656874300009,14.588455870000075],[121.03670971700001,14.588409901000034],[121.03681085100004,14.588397642000075],[121.03687827300007,14.588406836000047],[121.03652329200008,14.588105537000047],[121.03662084200005,14.587977785000078],[121.03675347300009,14.587825708000025],[121.03685850600004,14.587675197000067],[121.03654474200005,14.587389832000042],[121.03612692200011,14.587813231000041],[121.03584165100006,14.588107705000027],[121.0356299980001,14.588153717000068],[121.03543214800004,14.588139913000077],[121.03520849600011,14.586949030000028],[121.0344136110001,14.586896308000064],[121.03410133600005,14.586847641000077],[121.03365117200008,14.586766531000023],[121.03331050700001,14.586681365000061],[121.03295767600002,14.586563754000053],[121.0317067520001,14.584278789000052],[121.03120408200004,14.583367512000052],[121.03260874400007,14.582229811000047],[121.03358920500011,14.581248522000067],[121.0338469830001,14.580993775000024],[121.03477624000004,14.580133528000033],[121.03494902400007,14.580067498000062],[121.03508610600011,14.580005423000046],[121.03594879200011,14.579611299000021],[121.03595408100011,14.579609657000049],[121.03598321700008,14.579600611000046],[121.03600886700008,14.579592649000062],[121.03603307600008,14.579585136000048],[121.03605434300005,14.579578534000063],[121.03607250700009,14.579572892000044],[121.03624508600001,14.579519066000046],[121.03635361500005,14.579456937000032],[121.03643710100005,14.579438892000042],[121.03656662200001,14.579327415000023],[121.03734323500009,14.579123383000024],[121.03736082900002,14.579172997000057],[121.03765712500001,14.579754505000039],[121.03812222800002,14.579567669000028],[121.03871281300007,14.581335623000029],[121.0394570200001,14.581120351000038],[121.04014759300003,14.582841216000077],[121.04055139800005,14.58384747100007],[121.04057604500008,14.583908889000043],[121.04078436800012,14.584428053000067],[121.04078813800004,14.584437412000057],[121.04099609100001,14.584955618000038],[121.04087384000002,14.585132483000052],[121.04105311000001,14.585408284000039],[121.04113277600004,14.585534963000043],[121.04151277800008,14.586139156000058],[121.04156334100003,14.586254073000077],[121.04160011500005,14.586341410000045],[121.04153695900004,14.586329496000076],[121.04149225300011,14.586359873000049],[121.04143854800009,14.58638916700005],[121.04136775400002,14.586433108000051],[121.04131404900011,14.586469725000029],[121.04126766700006,14.58649901900003],[121.04120175600008,14.586542960000031],[121.04115537400003,14.58656981200005],[121.04091404400003,14.586728607000055],[121.04088196400005,14.586748016000058],[121.04048618600007,14.587020997000025],[121.0401530370001,14.587276864000046],[121.03970583400007,14.587600467000073],[121.03964402300005,14.587623645000065],[121.03888684900005,14.587646824000046],[121.03813209000009,14.587676518000023],[121.0378322140001,14.587692830000037],[121.03780076900011,14.587797648000048],[121.03766984200001,14.588114436000069],[121.0375238690001,14.58842723500004],[121.03734661700003,14.588802594000072],[121.03706857300006,14.589442094000049],[121.03785153000001,14.589470223000035],[121.03822625400005,14.589470223000035],[121.03987967500007,14.589512717000048],[121.04014623100011,14.589497265000034],[121.04157559000009,14.589161172000047],[121.04213188100005,14.588998921000041],[121.04320196900005,14.588620334000041],[121.04489015800004,14.587979054000073],[121.04635974700011,14.587226228000077]]]},"properties":{"brgy_name":"Addition Hills","brgy_code":"137401001","psgc_10d":"1380500001","city_name":"City of Mandaluyong"}},{"type":"Feature","geometry":{"type":"Polygon","coordinates":[[[121.03208777100008,14.593241565000028],[121.03209438900001,14.59329916400003],[121.03210431600007,14.59336636200004],[121.03206130000001,14.593407962000072],[121.03197857700002,14.593455961000075],[121.03184622100002,14.593510360000039],[121.03177673400012,14.593587158000048],[121.03170393800008,14.593683156000054],[121.03162452400011,14.593769555000051],[121.03151863900007,14.593868753000038],[121.03139620900004,14.593916752000041],[121.03127708900001,14.593929552000077],[121.03115135000007,14.593939151000029],[121.03100575800011,14.593955151000046],[121.03080722400011,14.594022350000046],[121.03070133900007,14.594102348000035],[121.03064177900001,14.594188747000032],[121.03053920200011,14.594223946000056],[121.03024943200012,14.59379122200005],[121.02988025200011,14.593153440000037],[121.02979505600001,14.592994881000038],[121.02948740600004,14.592471876000047],[121.02916319000008,14.591901539000048],[121.02924961600002,14.591792027000054],[121.0293545940001,14.591657054000052],[121.0292127240001,14.591267394000056],[121.02988340400009,14.590980859000069],[121.02976410200006,14.590729699000065],[121.0298103340001,14.590710866000052],[121.02990369500003,14.59067526900003],[121.02998547300001,14.590643269000054],[121.03013603200009,14.590578744000027],[121.03022513800011,14.590538800000047],[121.03036955100004,14.590474275000076],[121.03052932700007,14.590409750000049],[121.03068603000008,14.590348298000038],[121.03083966100007,14.590286845000037],[121.03099021900005,14.590216175000023],[121.03120223000008,14.590130142000078],[121.03159474800009,14.589957801000025],[121.03198882000004,14.589707657000076],[121.03214864900008,14.589852044000054],[121.03358071000002,14.590591931000063],[121.03362974400011,14.590668547000064],[121.03352877800012,14.591117162000046],[121.03343841200001,14.591458086000046],[121.03340201700007,14.591662477000057],[121.03331185600007,14.591717049000067],[121.03322961000003,14.591825777000054],[121.03314317700006,14.591963098000065],[121.03300117900005,14.592076538000072],[121.03287770300005,14.592178036000064],[121.03276657400011,14.592321328000025],[121.03265544600004,14.592428797000025],[121.03253814300001,14.592560148000075],[121.03238379800007,14.592584030000069],[121.03219858400007,14.592542237000032],[121.03203379500007,14.592548132000047],[121.03189606700005,14.592607912000062],[121.03183432900005,14.592745233000073],[121.03188989300008,14.592882555000074],[121.03199484800007,14.593055699000047],[121.03208777100008,14.593241565000028]]]},"properties":{"brgy_name":"Bagong Silang","brgy_code":"137401002","psgc_10d":"1380500002","city_name":"City of Mandaluyong"}},{"type":"Feature","geometry":{"type":"Polygon","coordinates":[[[121.04388600000004,14.573844976000032],[121.04319482400001,14.574306700000022],[121.04294546300002,14.574476720000064],[121.04270067600009,14.574101280000036],[121.04257635800002,14.573584494000045],[121.04254211600005,14.573492549000036],[121.04246940900009,14.573439602000064],[121.04166286400005,14.573074676000033],[121.04080378700007,14.572688030000052],[121.04093440700001,14.572382710000056],[121.04094172000009,14.572006232000035],[121.04097880400002,14.571857402000035],[121.04106993900007,14.571577366000042],[121.0412355090001,14.571626772000059],[121.0412669860001,14.571620996000036],[121.0412847340001,14.571618106000074],[121.04130063000002,14.571605489000035],[121.04131997500008,14.571583358000055],[121.0413482350001,14.571515066000075],[121.04053057300007,14.57122376500007],[121.04049728200005,14.571206029000052],[121.04043095100008,14.571158282000056],[121.0403686730001,14.57109842400007],[121.04026459300007,14.570974195000076],[121.04018882500009,14.570869496000057],[121.04005610100012,14.570582349000063],[121.04001736200007,14.570461436000073],[121.0400004820001,14.570081557000037],[121.04000012300003,14.569564863000039],[121.04001830300001,14.569239767000056],[121.04006921500002,14.569045282000047],[121.04014687100005,14.568875178000042],[121.04019923600003,14.568666999000072],[121.04023015000007,14.568516008000074],[121.04026958200006,14.568384918000049],[121.04032344600012,14.568108746000064],[121.04128148600012,14.568341308000072],[121.04179847800003,14.56846680600006],[121.04202031600005,14.568519864000052],[121.04275851500006,14.568696423000063],[121.04318345400009,14.568717216000039],[121.04304526500005,14.569175905000066],[121.04306439100003,14.569213039000033],[121.04310943000007,14.569296745000031],[121.04298460100006,14.569716443000061],[121.04285713500008,14.569881017000057],[121.04263343700006,14.570349477000036],[121.04294728000002,14.570349479000072],[121.0430260710001,14.570375743000056],[121.04308910400005,14.570428270000036],[121.04319941200004,14.570522820000065],[121.04333598400001,14.570654139000055],[121.04347780800003,14.570801216000064],[121.04366165500005,14.570927282000071],[121.04393479800001,14.571116382000071],[121.04372214000011,14.57144697800004],[121.04354994500011,14.571795112000075],[121.04341518300009,14.572053405000077],[121.04325047400005,14.572334159000036],[121.04380075100005,14.572547531000055],[121.0438564430001,14.572795515000053],[121.04386857300005,14.573001716000022],[121.04388070200002,14.573359534000076],[121.04388600000004,14.573844976000032]]]},"properties":{"brgy_name":"Barangka Itaas","brgy_code":"137401006","psgc_10d":"1380500006","city_name":"City of Mandaluyong"}},{"type":"Feature","geometry":{"type":"Polygon","coordinates":[[[121.04068987400001,14.575275810000051],[121.03991700400002,14.57579073200003],[121.03915600000005,14.57488797600007],[121.03852197900005,14.57412570200006],[121.03786196700003,14.573335687000053],[121.03740099600009,14.572778878000065],[121.03735547200006,14.572724445000063],[121.03697903600005,14.573440416000039],[121.03681512800006,14.573362965000058],[121.03642716900004,14.573263582000038],[121.03586934600003,14.573665548000065],[121.03566553200005,14.573543959000062],[121.03563978200009,14.573431843000037],[121.03561405300002,14.573265880000065],[121.0355873630001,14.572998098000028],[121.03557261200001,14.572838837000063],[121.03549986200005,14.572281792000069],[121.0358449690001,14.571679363000044],[121.03553121900006,14.571531776000029],[121.03537692300006,14.571565655000029],[121.03535827600001,14.571512859000052],[121.03533192200007,14.571475654000039],[121.03527254300002,14.571420852000074],[121.03519517400002,14.571391578000032],[121.0348794250001,14.571238931000039],[121.03457190800009,14.571105647000024],[121.03439213500008,14.571012936000045],[121.03425413500008,14.570935190000057],[121.03410206700005,14.57074132200006],[121.03405005200011,14.570674741000062],[121.03466238100009,14.570216123000023],[121.03524167300009,14.569783879000056],[121.03528755700006,14.569825790000039],[121.0353477860001,14.569851406000055],[121.03540566600009,14.56985381800007],[121.03545771300003,14.569842257000062],[121.03570471300009,14.569791114000054],[121.03596999700005,14.569733234000068],[121.03616029200009,14.569705034000037],[121.03748627300001,14.569648437000069],[121.0375623330001,14.569647965000058],[121.03763329800006,14.569793860000061],[121.03748402300005,14.569911532000049],[121.03760979900005,14.570037669000044],[121.03773292700009,14.570151037000073],[121.03766509700006,14.570211454000059],[121.03800875500008,14.570700609000028],[121.03810015800002,14.57063494700003],[121.03822258200012,14.570796320000056],[121.03844303800008,14.571070041000041],[121.0384111730001,14.571149597000044],[121.0387171540001,14.571439515000066],[121.03888611200011,14.571625357000073],[121.03905425100004,14.571750522000059],[121.03941796300001,14.572133947000054],[121.0400511360001,14.572938673000067],[121.04066329400007,14.573686352000038],[121.0406644200001,14.573687939000024],[121.04097408000007,14.574121651000041],[121.04098126700001,14.574196715000028],[121.04101202400011,14.575060719000078],[121.04068987400001,14.575275810000051]]]},"properties":{"brgy_name":"Barangka Drive","brgy_code":"137401003","psgc_10d":"1380500003","city_name":"City of Mandaluyong"}},{"type":"Feature","geometry":{"type":"Polygon","coordinates":[[[121.04080378700007,14.572688030000052],[121.04073246900009,14.572886567000069],[121.04078556500008,14.573006177000025],[121.04104866000011,14.573353259000044],[121.04104385700009,14.573380890000067],[121.04101291000006,14.573411266000051],[121.0406644200001,14.573687939000024],[121.04066329400007,14.573686352000038],[121.0400511360001,14.572938673000067],[121.03941796300001,14.572133947000054],[121.03905425100004,14.571750522000059],[121.03888611200011,14.571625357000073],[121.0387171540001,14.571439515000066],[121.0384111730001,14.571149597000044],[121.03844303800008,14.571070041000041],[121.03822258200012,14.570796320000056],[121.03810015800002,14.57063494700003],[121.03800875500008,14.570700609000028],[121.03766509700006,14.570211454000059],[121.03773292700009,14.570151037000073],[121.03760979900005,14.570037669000044],[121.03748402300005,14.569911532000049],[121.03763329800006,14.569793860000061],[121.0375623330001,14.569647965000058],[121.03748627300001,14.569648437000069],[121.03616029200009,14.569705034000037],[121.03596999700005,14.569733234000068],[121.03570471300009,14.569791114000054],[121.03545771300003,14.569842257000062],[121.03540566600009,14.56985381800007],[121.0353477860001,14.569851406000055],[121.03528755700006,14.569825790000039],[121.03524167300009,14.569783879000056],[121.03608693500007,14.569115611000029],[121.03667840900005,14.568723709000039],[121.03682428200011,14.56861751200006],[121.03693775800002,14.568545845000074],[121.03714728800003,14.568419292000044],[121.03727585500008,14.568343281000068],[121.03730719400005,14.56832647300007],[121.03750213800004,14.567446330000053],[121.03750425400005,14.567446826000037],[121.03750891300001,14.567447904000062],[121.03763264700001,14.567476543000055],[121.03898702000004,14.567790026000068],[121.03969202500002,14.567957595000053],[121.04011166500004,14.568057337000027],[121.04032344600012,14.568108746000064],[121.04026958200006,14.568384918000049],[121.04023015000007,14.568516008000074],[121.04019923600003,14.568666999000072],[121.04014687100005,14.568875178000042],[121.04006921500002,14.569045282000047],[121.04001830300001,14.569239767000056],[121.04000012300003,14.569564863000039],[121.0400004820001,14.570081557000037],[121.04001736200007,14.570461436000073],[121.04005610100012,14.570582349000063],[121.04018882500009,14.570869496000057],[121.04026459300007,14.570974195000076],[121.0403686730001,14.57109842400007],[121.04043095100008,14.571158282000056],[121.04049728200005,14.571206029000052],[121.04053057300007,14.57122376500007],[121.0413482350001,14.571515066000075],[121.04131997500008,14.571583358000055],[121.04130063000002,14.571605489000035],[121.0412847340001,14.571618106000074],[121.0412669860001,14.571620996000036],[121.0412355090001,14.571626772000059],[121.04106993900007,14.571577366000042],[121.04097880400002,14.571857402000035],[121.04094172000009,14.572006232000035],[121.04093440700001,14.572382710000056],[121.04080378700007,14.572688030000052]]]},"properties":{"brgy_name":"Barangka Ibaba","brgy_code":"137401004","psgc_10d":"1380500004","city_name":"City of Mandaluyong"}},{"type":"Feature","geometry":{"type":"Polygon","coordinates":[[[121.05147810900007,14.573644993000073],[121.05111636600009,14.574104249000072],[121.0509371500001,14.574229069000069],[121.05057532600006,14.574528903000044],[121.05047152100008,14.57460754300007],[121.05151039500004,14.575895368000033],[121.05032358100004,14.576700219000031],[121.05014973900006,14.576470464000067],[121.04992417000005,14.576168056000029],[121.04988371200011,14.576113816000031],[121.04955025600009,14.575666770000055],[121.04954674800001,14.575661883000066],[121.04947676200004,14.575566845000026],[121.04932098800009,14.575355794000075],[121.04884031200004,14.574717655000029],[121.0487985530001,14.574661579000065],[121.04869528000006,14.574522899000044],[121.0484052170001,14.574133386000028],[121.04822780000006,14.573896124000044],[121.0480364230001,14.573636135000072],[121.04771735400004,14.573147172000063],[121.04730094200011,14.572441454000057],[121.04713873300011,14.572535260000052],[121.04677083800004,14.572756287000061],[121.04653802700011,14.572889868000061],[121.0462784990001,14.573031082000057],[121.04603423700007,14.573103597000056],[121.04547701500007,14.573263893000046],[121.04507245700006,14.573393657000054],[121.04481674600004,14.573477622000041],[121.04450378600006,14.573592120000058],[121.04422517500007,14.573702801000024],[121.04388600000004,14.573844976000032],[121.04388070200002,14.573359534000076],[121.04386857300005,14.573001716000022],[121.0438564430001,14.572795515000053],[121.04380075100005,14.572547531000055],[121.04325047400005,14.572334159000036],[121.04341518300009,14.572053405000077],[121.04354994500011,14.571795112000075],[121.04372214000011,14.57144697800004],[121.04393479800001,14.571116382000071],[121.04366165500005,14.570927282000071],[121.04347780800003,14.570801216000064],[121.04333598400001,14.570654139000055],[121.04319941200004,14.570522820000065],[121.04308910400005,14.570428270000036],[121.0430260710001,14.570375743000056],[121.04294728000002,14.570349479000072],[121.04263343700006,14.570349477000036],[121.04285713500008,14.569881017000057],[121.04298460100006,14.569716443000061],[121.04310943000007,14.569296745000031],[121.04306439100003,14.569213039000033],[121.04304526500005,14.569175905000066],[121.04318345400009,14.568717216000039],[121.04351177400008,14.568733282000039],[121.04404517300009,14.568718892000049],[121.04420544000004,14.568714568000075],[121.04485777700006,14.568621749000044],[121.04597898000009,14.568431926000073],[121.04605777300003,14.568422492000025],[121.04709986900002,14.568297716000075],[121.0474977990001,14.568377716000043],[121.04802882700005,14.568484474000059],[121.04833892900001,14.568536256000073],[121.04884621300005,14.568565749000072],[121.04951601500011,14.568560597000044],[121.04954936400009,14.568785382000044],[121.04957210800001,14.568890175000035],[121.04960663400004,14.569025816000021],[121.04966715000012,14.569075461000068],[121.04987308400007,14.569119861000047],[121.04997933700008,14.569148462000044],[121.05002769600003,14.56919053300004],[121.05003368200005,14.569203293000044],[121.05006736600001,14.56927072700006],[121.05014275200006,14.569379115000061],[121.05021690700005,14.569459681000069],[121.05030869200004,14.569532499000047],[121.05042880300005,14.569571601000064],[121.05044982400011,14.569640720000052],[121.05039278000004,14.569736213000056],[121.05030346500007,14.569832507000058],[121.05028260000006,14.569850095000049],[121.05020600000012,14.569943724000041],[121.05017539800008,14.570099049000078],[121.05016459400008,14.570222172000058],[121.05037209300008,14.570337450000068],[121.0504566300001,14.570544949000066],[121.05061033300001,14.570521893000034],[121.05081014700011,14.570606430000055],[121.05094294900005,14.570821514000045],[121.05099393900002,14.570923494000056],[121.05105883400006,14.571016202000067],[121.05107737600008,14.571127452000042],[121.05107737600008,14.571285056000022],[121.05105883400006,14.571433389000049],[121.05101248000005,14.571572452000055],[121.05092904300011,14.571804222000026],[121.05091977200004,14.571934014000021],[121.05092904300011,14.572212139000044],[121.05091977200004,14.572592243000031],[121.05092904300011,14.572824014000048],[121.0508826890001,14.572935264000023],[121.05085487600002,14.573018701000024],[121.05084560500006,14.573111409000035],[121.05089580300012,14.573223186000064],[121.05110103000004,14.573385208000047],[121.05129545600005,14.573525626000048],[121.05147810900007,14.573644993000073]]]},"properties":{"brgy_name":"Barangka Ilaya","brgy_code":"137401005","psgc_10d":"1380500005","city_name":"City of Mandaluyong"}},{"type":"Feature","geometry":{"type":"Polygon","coordinates":[[[121.02851964400008,14.589460832000043],[121.02837253000007,14.589550675000055],[121.02813611800002,14.589764102000061],[121.02794567500007,14.589951262000056],[121.02776179800003,14.590135138000051],[121.02765672600003,14.59021722600005],[121.02730210800007,14.590460205000056],[121.02695740900003,14.590677855000024],[121.02694405600005,14.590616097000066],[121.02692903400009,14.590494250000063],[121.02691067300009,14.59030229900003],[121.02690900400012,14.589896700000054],[121.02691235200007,14.589603489000069],[121.02691234200006,14.589219032000074],[121.02691234200006,14.588801748000037],[121.02715770500004,14.588858499000025],[121.02753826800006,14.588953639000067],[121.0276756940001,14.588997720000066],[121.02779197600012,14.589037096000027],[121.02788189500006,14.58906393500007],[121.02811087400005,14.589170792000061],[121.02822621200005,14.589238637000051],[121.02846876000001,14.589418428000045],[121.02851964400008,14.589460832000043]]]},"properties":{"brgy_name":"Burol","brgy_code":"137401007","psgc_10d":"1380500007","city_name":"City of Mandaluyong"}},{"type":"Feature","geometry":{"type":"Polygon","coordinates":[[[121.05197249900004,14.569232224000075],[121.0520570000001,14.569540976000042],[121.05220559500003,14.570074346000069],[121.0522130490001,14.570101102000024],[121.05225718600002,14.570291231000056],[121.05226397700005,14.570410062000064],[121.05224700100007,14.570488151000063],[121.05222677100005,14.570612216000029],[121.05218928300008,14.570705442000076],[121.05211798500011,14.570803901000033],[121.05200574300011,14.570980683000073],[121.05180415200005,14.571306024000023],[121.05167641100002,14.571613400000047],[121.0516265120001,14.571757109000032],[121.05159856900002,14.57192277300004],[121.05159654400006,14.572106089000044],[121.0516265120001,14.572309988000029],[121.05171233800002,14.572609381000063],[121.05185405100008,14.57301056700004],[121.05147810900007,14.573644993000073],[121.05129545600005,14.573525626000048],[121.05110103000004,14.573385208000047],[121.05089580300012,14.573223186000064],[121.05084560500006,14.573111409000035],[121.05085487600002,14.573018701000024],[121.0508826890001,14.572935264000023],[121.05092904300011,14.572824014000048],[121.05091977200004,14.572592243000031],[121.05092904300011,14.572212139000044],[121.05091977200004,14.571934014000021],[121.05092904300011,14.571804222000026],[121.05101248000005,14.571572452000055],[121.05105883400006,14.571433389000049],[121.05107737600008,14.571285056000022],[121.05107737600008,14.571127452000042],[121.05105883400006,14.571016202000067],[121.05099393900002,14.570923494000056],[121.05094294900005,14.570821514000045],[121.05081014700011,14.570606430000055],[121.05061033300001,14.570521893000034],[121.0504566300001,14.570544949000066],[121.05037209300008,14.570337450000068],[121.05016459400008,14.570222172000058],[121.05017539800008,14.570099049000078],[121.05020600000012,14.569943724000041],[121.05028260000006,14.569850095000049],[121.05030346500007,14.569832507000058],[121.05039278000004,14.569736213000056],[121.05044982400011,14.569640720000052],[121.05042880300005,14.569571601000064],[121.05030869200004,14.569532499000047],[121.05021690700005,14.569459681000069],[121.05014275200006,14.569379115000061],[121.05006736600001,14.56927072700006],[121.05003368200005,14.569203293000044],[121.05002769600003,14.56919053300004],[121.04997933700008,14.569148462000044],[121.04987308400007,14.569119861000047],[121.04966715000012,14.569075461000068],[121.04960663400004,14.569025816000021],[121.04957210800001,14.568890175000035],[121.04954936400009,14.568785382000044],[121.04951601500011,14.568560597000044],[121.0496130360001,14.568559850000042],[121.05041966400006,14.568402103000039],[121.05092253500004,14.568200033000039],[121.05139764300009,14.567941174000055],[121.05164605700008,14.568355987000075],[121.05181242000003,14.568736246000071],[121.05193804100008,14.56910631900007],[121.05197249900004,14.569232224000075]]]},"properties":{"brgy_name":"Buayang Bato","brgy_code":"137401008","psgc_10d":"1380500008","city_name":"City of Mandaluyong"}},{"type":"Feature","geometry":{"type":"Polygon","coordinates":[[[121.0297311600001,14.594709440000031],[121.02966016300002,14.594728373000066],[121.02957260100004,14.594747305000055],[121.02950633800003,14.594766237000044],[121.02944954100008,14.594799369000043],[121.02940221000006,14.594858532000046],[121.02938801100004,14.594905863000065],[121.02936434600008,14.594960294000032],[121.02930991500011,14.595033656000055],[121.02923655300003,14.595111752000037],[121.02918922200001,14.59516618300006],[121.02914189100011,14.595204047000038],[121.02908746000003,14.595227713000043],[121.0290259300001,14.595225346000063],[121.02895493400001,14.595204047000038],[121.02888630400003,14.59516618300006],[121.02879164300009,14.595099920000052],[121.02870881400008,14.595057322000059],[121.02864255100008,14.595031290000065],[121.02857865400006,14.595033656000055],[121.02851475800003,14.595069154000043],[121.02842956200004,14.595121218000031],[121.02827573700006,14.595208780000064],[121.02804854900012,14.595348406000028],[121.02771250000001,14.59556612800003],[121.02724899300006,14.595871856000031],[121.02712457300004,14.595934066000041],[121.02697250300002,14.595927154000037],[121.02688264300002,14.595885680000038],[121.02679278300002,14.595802733000028],[121.02664762600011,14.595602277000069],[121.02653011700011,14.595436382000059],[121.02633657400008,14.595194453000033],[121.02603883000006,14.59479852000004],[121.02609781400008,14.594626104000042],[121.02614439800004,14.594354365000072],[121.0261699240001,14.593997754000043],[121.02617047000001,14.593990118000022],[121.02605880400006,14.59368024500003],[121.02598602000012,14.593478067000035],[121.02588088700008,14.593219280000028],[121.02576362400009,14.592996884000058],[121.02568679700005,14.592835142000069],[121.02556144700009,14.592657226000028],[121.02544239200006,14.592522145000032],[121.02574033600001,14.592391903000077],[121.02593522800009,14.592313318000038],[121.0261685910001,14.59220807500003],[121.02617661500005,14.592204457000037],[121.02631369500011,14.592145779000077],[121.02639051100005,14.592111980000027],[121.02648576200011,14.592072036000047],[121.02657179500011,14.592035165000027],[121.02670084500005,14.591979858000059],[121.02679302400009,14.591936841000063],[121.02690056500001,14.591893824000067],[121.02699581600007,14.591853880000031],[121.0270879950001,14.591813936000051],[121.02717710100001,14.591773992000071],[121.02736682700004,14.591696371000069],[121.02742141600004,14.591676718000031],[121.02764413900002,14.591583490000062],[121.02784078600007,14.591506674000073],[121.02808045000006,14.591408351000041],[121.02836313100011,14.591294664000031],[121.02858128700007,14.59120555800007],[121.0287889550001,14.591123000000039],[121.02884844000005,14.591099282000073],[121.02961874400012,14.590788910000072],[121.02976410200006,14.590729699000065],[121.02988340400009,14.590980859000069],[121.0292127240001,14.591267394000056],[121.0293545940001,14.591657054000052],[121.02924961600002,14.591792027000054],[121.02916319000008,14.591901539000048],[121.02948740600004,14.592471876000047],[121.02979505600001,14.592994881000038],[121.02988025200011,14.593153440000037],[121.03024943200012,14.59379122200005],[121.03053920200011,14.594223946000056],[121.03039379100005,14.594269264000047],[121.03028729700009,14.594295296000041],[121.03023227800008,14.59431094200005],[121.03019026900006,14.594326061000061],[121.03011927200009,14.59435919200007],[121.03005537600006,14.594413623000037],[121.02999621200001,14.594479886000045],[121.0299157500001,14.594574547000036],[121.02987315200005,14.594619512000065],[121.02979269000002,14.594681042000047],[121.0297311600001,14.594709440000031]]]},"properties":{"brgy_name":"Daang Bakal","brgy_code":"137401009","psgc_10d":"1380500009","city_name":"City of Mandaluyong"}},{"type":"Feature","geometry":{"type":"Polygon","coordinates":[[[121.02976410200006,14.590729699000065],[121.02961874400012,14.590788910000072],[121.0295000000001,14.59064941400004],[121.0293801680001,14.59051114600004],[121.02923711200003,14.590347914000063],[121.02909441400004,14.590216175000023],[121.02893011000003,14.590066354000044],[121.02884775500002,14.589971727000034],[121.02868077800008,14.589754264000021],[121.02851964400008,14.589460832000043],[121.02846876000001,14.589418428000045],[121.02822621200005,14.589238637000051],[121.02811087400005,14.589170792000061],[121.02788189500006,14.58906393500007],[121.02803901900006,14.588929086000064],[121.02821603500001,14.588777287000028],[121.02853999800004,14.588502512000048],[121.02896233700005,14.588166676000071],[121.02911419600002,14.588037870000051],[121.02925967500005,14.587924325000074],[121.02937322000002,14.587835619000032],[121.02949741000009,14.587736267000025],[121.02978294800005,14.587491296000053],[121.02986382100005,14.58741989300006],[121.02997323700004,14.587335567000025],[121.03022087400007,14.58716425700004],[121.03002412100011,14.586972593000041],[121.03071445100011,14.586170318000029],[121.03110795600003,14.585732714000073],[121.03195981200008,14.586125770000024],[121.03221272400003,14.586260400000072],[121.03238005200001,14.586331747000031],[121.03279298200005,14.586511547000043],[121.03287871000009,14.586704435000058],[121.03295104300003,14.586985730000038],[121.0330073020001,14.587245593000034],[121.03303677100007,14.58751081500003],[121.03303138000001,14.587729072000059],[121.03301266000005,14.587947492000069],[121.03298587000006,14.588086800000042],[121.03292282700011,14.588365125000053],[121.03283686300006,14.588553889000025],[121.03272010300009,14.588818134000064],[121.03257722600006,14.589045508000027],[121.03232527200009,14.589363524000078],[121.03209482500006,14.589609333000055],[121.03198882000004,14.589707657000076],[121.03159474800009,14.589957801000025],[121.03120223000008,14.590130142000078],[121.03099021900005,14.590216175000023],[121.03083966100007,14.590286845000037],[121.03068603000008,14.590348298000038],[121.03052932700007,14.590409750000049],[121.03036955100004,14.590474275000076],[121.03022513800011,14.590538800000047],[121.03013603200009,14.590578744000027],[121.02998547300001,14.590643269000054],[121.02990369500003,14.59067526900003],[121.0298103340001,14.590710866000052],[121.02976410200006,14.590729699000065]]]},"properties":{"brgy_name":"Hagdang Bato Itaas","brgy_code":"137401010","psgc_10d":"1380500010","city_name":"City of Mandaluyong"}},{"type":"Feature","geometry":{"type":"Polygon","coordinates":[[[121.03468091900004,14.590720646000022],[121.0345878490001,14.590840645000071],[121.03445819900003,14.591001849000065],[121.03432854900007,14.591121259000033],[121.03420507300007,14.591264551000052],[121.03406924900003,14.591455606000068],[121.03394577200004,14.591658603000042],[121.03382435300011,14.591721794000023],[121.03371995600003,14.591728912000065],[121.03363090800008,14.591676515000074],[121.0335277690001,14.591657732000044],[121.03340201700007,14.591662477000057],[121.03343841200001,14.591458086000046],[121.03352877800012,14.591117162000046],[121.03362974400011,14.590668547000064],[121.03358071000002,14.590591931000063],[121.03214864900008,14.589852044000054],[121.03198882000004,14.589707657000076],[121.03209482500006,14.589609333000055],[121.03232527200009,14.589363524000078],[121.03257722600006,14.589045508000027],[121.03272010300009,14.588818134000064],[121.03283686300006,14.588553889000025],[121.03292282700011,14.588365125000053],[121.03298587000006,14.588086800000042],[121.03301266000005,14.587947492000069],[121.03303138000001,14.587729072000059],[121.03303677100007,14.58751081500003],[121.0330073020001,14.587245593000034],[121.03295104300003,14.586985730000038],[121.03287871000009,14.586704435000058],[121.03279298200005,14.586511547000043],[121.03295767600002,14.586563754000053],[121.03331050700001,14.586681365000061],[121.03365117200008,14.586766531000023],[121.03410133600005,14.586847641000077],[121.0344136110001,14.586896308000064],[121.03520849600011,14.586949030000028],[121.03543214800004,14.588139913000077],[121.0356299980001,14.588153717000068],[121.03584165100006,14.588107705000027],[121.03612692200011,14.587813231000041],[121.03654474200005,14.587389832000042],[121.03685850600004,14.587675197000067],[121.03675347300009,14.587825708000025],[121.03662084200005,14.587977785000078],[121.03652329200008,14.588105537000047],[121.03687827300007,14.588406836000047],[121.03681085100004,14.588397642000075],[121.03670971700001,14.588409901000034],[121.03656874300009,14.588455870000075],[121.03646148100006,14.588511034000021],[121.03635421800004,14.588553939000064],[121.03616114500005,14.588759271000072],[121.03611824000006,14.588799111000071],[121.03601404200003,14.588860404000059],[121.03593436100005,14.58889718000006],[121.03581177500007,14.588955408000061],[121.03577499900007,14.588986055000078],[121.03574741700004,14.589028960000064],[121.03575354700001,14.589068800000064],[121.0358393570001,14.589114770000037],[121.03587000300001,14.589145417000054],[121.03589145600006,14.589237356000069],[121.03591290800011,14.589271067000027],[121.03591889300003,14.589404220000063],[121.03592516700007,14.589543821000063],[121.03591903800009,14.589635760000021],[121.03589758500004,14.589690924000024],[121.03586080900004,14.589755282000056],[121.03577806400006,14.589792058000057],[121.03571064100004,14.589804316000027],[121.03566160700007,14.589804316000027],[121.03559418500004,14.589773670000056],[121.03553902100009,14.589739959000042],[121.03547466300006,14.589718506000054],[121.03541643500012,14.589733829000068],[121.03538578900009,14.589770605000069],[121.03536127100006,14.589825769000072],[121.03535514200007,14.589874803000043],[121.03536127100006,14.589926902000059],[121.03535820700006,14.589988195000046],[121.03532143100006,14.590052553000078],[121.03526626700011,14.590110781000021],[121.03522029800001,14.590181268000038],[121.03512835800007,14.590165945000024],[121.03508851800007,14.590202721000026],[121.03504254800009,14.590306919000056],[121.0350027070001,14.59036208200007],[121.03493222000009,14.590447893000032],[121.03489850900007,14.590518380000049],[121.03468091900004,14.590720646000022]]]},"properties":{"brgy_name":"Hagdang Bato Libis","brgy_code":"137401011","psgc_10d":"1380500011","city_name":"City of Mandaluyong"}},{"type":"Feature","geometry":{"type":"Polygon","coordinates":[[[121.02961874400012,14.590788910000072],[121.02884844000005,14.591099282000073],[121.0287889550001,14.591123000000039],[121.02858128700007,14.59120555800007],[121.02836313100011,14.591294664000031],[121.02808045000006,14.591408351000041],[121.02784078600007,14.591506674000073],[121.02764413900002,14.591583490000062],[121.02742141600004,14.591676718000031],[121.02736682700004,14.591696371000069],[121.02717710100001,14.591773992000071],[121.0270879950001,14.591813936000051],[121.02699581600007,14.591853880000031],[121.02690056500001,14.591893824000067],[121.02679302400009,14.591936841000063],[121.02670084500005,14.591979858000059],[121.02657179500011,14.592035165000027],[121.02648576200011,14.592072036000047],[121.02639051100005,14.592111980000027],[121.02631369500011,14.592145779000077],[121.02617661500005,14.592204457000037],[121.0261685910001,14.59220807500003],[121.02614926000001,14.59217985500004],[121.02596856100001,14.591916051000055],[121.02581698900008,14.591787445000023],[121.02604023200001,14.591608071000053],[121.02611359100001,14.591545466000071],[121.02631023900005,14.591388763000054],[121.02642869500005,14.591294216000051],[121.0265370510001,14.591182576000051],[121.02670391800007,14.590975112000024],[121.02691600300011,14.590714089000073],[121.02695740900003,14.590677855000024],[121.02730210800007,14.590460205000056],[121.02765672600003,14.59021722600005],[121.02776179800003,14.590135138000051],[121.02794567500007,14.589951262000056],[121.02813611800002,14.589764102000061],[121.02837253000007,14.589550675000055],[121.02851964400008,14.589460832000043],[121.02868077800008,14.589754264000021],[121.02884775500002,14.589971727000034],[121.02893011000003,14.590066354000044],[121.02909441400004,14.590216175000023],[121.02923711200003,14.590347914000063],[121.0293801680001,14.59051114600004],[121.0295000000001,14.59064941400004],[121.02961874400012,14.590788910000072]]]},"properties":{"brgy_name":"Harapin Ang Bukas","brgy_code":"137401012","psgc_10d":"1380500012","city_name":"City of Mandaluyong"}},{"type":"Feature","geometry":{"type":"Polygon","coordinates":[[[121.0571248330001,14.578129807000039],[121.05613547000007,14.57903453800003],[121.05535056400004,14.579746989000057],[121.05451052300009,14.580483108000067],[121.05358076900006,14.581235784000057],[121.05346868100003,14.581349880000062],[121.05244018800011,14.582247821000067],[121.05168570700005,14.582900954000024],[121.04971565100004,14.584527428000058],[121.04848370200011,14.585535183000047],[121.04787040100007,14.586047793000034],[121.04722048600001,14.586560402000032],[121.04635974700011,14.587226228000077],[121.04599332900011,14.586982796000029],[121.04444589800005,14.585916141000041],[121.04541286600011,14.584897442000056],[121.04548102700005,14.584761120000053],[121.04591510500006,14.584018524000044],[121.04652855400002,14.582927948000076],[121.0465859520001,14.582526157000075],[121.04659671500008,14.582325261000051],[121.04654290300005,14.582203289000063],[121.04647833000001,14.582102841000051],[121.04638505700007,14.581830197000045],[121.04632765800011,14.581640064000055],[121.04626667200012,14.581475043000069],[121.04620568600001,14.581295672000067],[121.04630613400002,14.581137825000042],[121.04645700000003,14.580913976000033],[121.04660200000001,14.580692976000023],[121.04688500000009,14.580342976000054],[121.04714200300009,14.580004200000076],[121.04746487000011,14.579548598000031],[121.04762271700008,14.579301066000028],[121.04703754500008,14.579372396000053],[121.04651420400012,14.579455325000026],[121.04566101500006,14.579540371000064],[121.04599688600001,14.579009951000046],[121.04638231300009,14.578404281000076],[121.04728189800005,14.577004479000038],[121.04690128200002,14.576715085000046],[121.04677231300002,14.57663959100006],[121.04667165400008,14.576614426000049],[121.04653324800006,14.576608135000072],[121.04636653200009,14.576620717000026],[121.04627531000006,14.576010474000043],[121.04676916700009,14.575941271000033],[121.0469643350001,14.575883249000071],[121.04821695800001,14.575046986000075],[121.04822335400002,14.575042714000062],[121.0487985530001,14.574661579000065],[121.04884031200004,14.574717655000029],[121.04932098800009,14.575355794000075],[121.04947676200004,14.575566845000026],[121.04954674800001,14.575661883000066],[121.04955025600009,14.575666770000055],[121.04988371200011,14.576113816000031],[121.04992417000005,14.576168056000029],[121.05014973900006,14.576470464000067],[121.05032358100004,14.576700219000031],[121.05151039500004,14.575895368000033],[121.05047152100008,14.57460754300007],[121.05057532600006,14.574528903000044],[121.0509371500001,14.574229069000069],[121.05111636600009,14.574104249000072],[121.05147810900007,14.573644993000073],[121.05185405100008,14.57301056700004],[121.05171233800002,14.572609381000063],[121.0516265120001,14.572309988000029],[121.05159654400006,14.572106089000044],[121.05159856900002,14.57192277300004],[121.0516265120001,14.571757109000032],[121.05167641100002,14.571613400000047],[121.05180415200005,14.571306024000023],[121.05200574300011,14.570980683000073],[121.05211798500011,14.570803901000033],[121.05218928300008,14.570705442000076],[121.05222677100005,14.570612216000029],[121.05224700100007,14.570488151000063],[121.05226397700005,14.570410062000064],[121.05225718600002,14.570291231000056],[121.0522130490001,14.570101102000024],[121.05220559500003,14.570074346000069],[121.0520570000001,14.569540976000042],[121.05197249900004,14.569232224000075],[121.05228603100011,14.569600999000045],[121.05292668400011,14.57026193400003],[121.05294192800011,14.570275145000039],[121.05296022100003,14.570286324000051],[121.05297546500003,14.570290389000036],[121.05366349700012,14.570894158000044],[121.05502021000007,14.571674150000035],[121.05589603300007,14.572127438000052],[121.0555587880001,14.572709750000058],[121.05565797700001,14.57289789500004],[121.05562671500002,14.573511015000065],[121.05594490900012,14.573966691000066],[121.05592947300011,14.575882294000053],[121.05590737300008,14.576071557000034],[121.05589282700009,14.576283605000071],[121.05595320400005,14.576604542000041],[121.05607128200006,14.576758260000076],[121.0571248330001,14.578129807000039]]]},"properties":{"brgy_name":"Highway Hills","brgy_code":"137401013","psgc_10d":"1380500013","city_name":"City of Mandaluyong"}},{"type":"Feature","geometry":{"type":"Polygon","coordinates":[[[121.02785983400008,14.576433386000076],[121.02741991000005,14.576762401000053],[121.0271855850001,14.576941161000036],[121.02591647800011,14.574885541000071],[121.02566471600005,14.574477711000043],[121.02609052700006,14.574203588000046],[121.03008016600006,14.570887148000054],[121.03176458600001,14.56935388900007],[121.03236980200006,14.568798233000052],[121.03270831800012,14.568487438000034],[121.03285371600009,14.568353946000059],[121.03299159900007,14.568227354000044],[121.03306962000011,14.568155786000034],[121.0332202510001,14.568020304000072],[121.03337664600008,14.567902467000067],[121.03373819500007,14.567630056000041],[121.03410137000003,14.567421522000075],[121.03416050400006,14.56738795900003],[121.03467973800002,14.567247635000058],[121.03520858200011,14.567238430000032],[121.03663642300012,14.567273612000065],[121.03678069000011,14.567277167000043],[121.03750139100009,14.567446155000027],[121.03750213800004,14.567446330000053],[121.03730719400005,14.56832647300007],[121.03727585500008,14.568343281000068],[121.03714728800003,14.568419292000044],[121.03693775800002,14.568545845000074],[121.03682428200011,14.56861751200006],[121.03667840900005,14.568723709000039],[121.03608693500007,14.569115611000029],[121.03524167300009,14.569783879000056],[121.03466238100009,14.570216123000023],[121.03405005200011,14.570674741000062],[121.03410206700005,14.57074132200006],[121.03328982800008,14.571352431000037],[121.03275640900006,14.571740136000074],[121.03253783700006,14.571885850000058],[121.03222038800004,14.572133044000054],[121.03201222500002,14.572315187000072],[121.03169477600011,14.572551973000031],[121.03129926500003,14.572856412000021],[121.03105987700008,14.573033351000049],[121.03075283600003,14.573246719000053],[121.0303417130001,14.573561566000024],[121.03009972300003,14.573735903000056],[121.02932691600006,14.57430314800007],[121.02904069200008,14.574506107000047],[121.02886115100011,14.574651822000021],[121.02868941600002,14.574815750000027],[121.02851247700005,14.574971873000038],[121.02824967100003,14.57536218000007],[121.02812217100006,14.575578149000023],[121.02798686400001,14.575866976000043],[121.02790620100006,14.576093354000022],[121.02787497600002,14.576285905000077],[121.02785983400008,14.576433386000076]]]},"properties":{"brgy_name":"Hulo","brgy_code":"137401014","psgc_10d":"1380500014","city_name":"City of Mandaluyong"}},{"type":"Feature","geometry":{"type":"Polygon","coordinates":[[[121.02395626200007,14.587607751000064],[121.02367561200003,14.588024992000044],[121.0234924670001,14.588245500000028],[121.02323291300002,14.588527624000051],[121.02310354500003,14.588628905000064],[121.02300721500001,14.588696898000023],[121.02286481900001,14.588777349000054],[121.02273647700008,14.588841635000051],[121.02268935000006,14.588769080000077],[121.02262208600007,14.588665524000078],[121.02178112600006,14.587779148000038],[121.02108892700005,14.587133096000059],[121.02130647500007,14.586843031000058],[121.0213961390001,14.586663704000046],[121.02156357800004,14.586328827000045],[121.02101641100012,14.586058539000021],[121.02026938100005,14.585572471000035],[121.02023939000003,14.585356534000027],[121.02009543200006,14.585002637000059],[121.01987949500005,14.58453477300003],[121.01964556300004,14.584084904000065],[121.01962518800008,14.584056282000063],[121.02117217800003,14.583028643000034],[121.02106367500005,14.582670651000058],[121.02101177100008,14.582486105000044],[121.02097716900005,14.582313092000049],[121.02093103200002,14.582151614000054],[121.02091949800001,14.581892096000047],[121.02090796400012,14.581638345000044],[121.02091027900008,14.581287535000058],[121.02089960400008,14.580893579000076],[121.02164460300003,14.580899113000044],[121.02163786600011,14.580996958000071],[121.02264555800002,14.581118953000043],[121.02304377900009,14.581263469000078],[121.02328210500002,14.581351220000045],[121.02309382600004,14.581626706000065],[121.02289350500007,14.581561075000025],[121.02288750100001,14.581570577000036],[121.02254700000003,14.582030976000055],[121.02218100000005,14.583002976000046],[121.0222950000001,14.583151976000067],[121.02238328500005,14.583283443000028],[121.02234621300011,14.583495283000047],[121.02220322100004,14.583638275000055],[121.02217341200003,14.583913434000067],[121.0221661490001,14.584061955000038],[121.02222607600004,14.584175978000076],[121.02225024400002,14.58428473500004],[121.02225830000009,14.584401549000063],[121.02231872100003,14.584482110000067],[121.02236705700011,14.584550586000034],[121.02239525400012,14.584691568000039],[121.02228649600011,14.584828521000077],[121.02226635600005,14.584941307000065],[121.02231872100003,14.585025896000047],[121.02241136600003,14.585050064000029],[121.02249595500007,14.585098400000049],[121.02260874000001,14.585086316000059],[121.02272958100002,14.585013811000067],[121.02282222600002,14.58511048400004],[121.02307551800004,14.585215964000042],[121.02317864000008,14.58527489100004],[121.02330140400011,14.585417297000049],[121.0231589980001,14.585765945000048],[121.02318355000011,14.585869067000033],[121.02324738800007,14.585957457000063],[121.02343398800008,14.586036025000055],[121.02379245800012,14.585982009000077],[121.02392105600006,14.585973026000033],[121.02407613800005,14.585966163000023],[121.02408471700005,14.585973781000064],[121.02410482000005,14.585974708000037],[121.02414013900011,14.585980178000057],[121.02435500000001,14.586004976000027],[121.02455559500004,14.586068056000045],[121.02458546700007,14.586084914000025],[121.02461126600008,14.586109220000026],[121.02461896600005,14.586124718000065],[121.02461905000007,14.586146835000022],[121.02461725400008,14.586160738000046],[121.02460249800004,14.586244030000046],[121.02453709500003,14.586292642000046],[121.02454694800008,14.586634483000068],[121.02438077900001,14.586720717000048],[121.0243568620001,14.58677562400004],[121.0243408450001,14.586812017000057],[121.02426691100004,14.587034709000022],[121.0241177690001,14.58734823900005],[121.02395626200007,14.587607751000064]]]},"properties":{"brgy_name":"Mabini-J. Rizal","brgy_code":"137401015","psgc_10d":"1380500015","city_name":"City of Mandaluyong"}},{"type":"Feature","geometry":{"type":"Polygon","coordinates":[[[121.04627531000006,14.576010474000043],[121.04586200000006,14.576067976000047],[121.04571110900008,14.576120239000034],[121.04560909800011,14.576182580000022],[121.04545041300003,14.576324262000071],[121.04514437800003,14.576924997000049],[121.04486668000004,14.577514397000073],[121.04463998800009,14.578058459000033],[121.04442463000009,14.578489174000026],[121.04423342600012,14.578908417000036],[121.04359987200007,14.578603230000056],[121.04282078200004,14.578171805000068],[121.04274710700008,14.578137801000025],[121.04266209700006,14.577990451000062],[121.04211803500004,14.577219697000032],[121.04145496000001,14.576329930000043],[121.04104691400005,14.575791535000064],[121.04068987400001,14.575275810000051],[121.04101202400011,14.575060719000078],[121.04098126700001,14.574196715000028],[121.04097408000007,14.574121651000041],[121.0406644200001,14.573687939000024],[121.04101291000006,14.573411266000051],[121.04104385700009,14.573380890000067],[121.04104866000011,14.573353259000044],[121.04078556500008,14.573006177000025],[121.04073246900009,14.572886567000069],[121.04080378700007,14.572688030000052],[121.04166286400005,14.573074676000033],[121.04246940900009,14.573439602000064],[121.04254211600005,14.573492549000036],[121.04257635800002,14.573584494000045],[121.04270067600009,14.574101280000036],[121.04294546300002,14.574476720000064],[121.04319482400001,14.574306700000022],[121.04388600000004,14.573844976000032],[121.04422517500007,14.573702801000024],[121.04450378600006,14.573592120000058],[121.04481674600004,14.573477622000041],[121.04507245700006,14.573393657000054],[121.04547701500007,14.573263893000046],[121.04603423700007,14.573103597000056],[121.0462784990001,14.573031082000057],[121.04653802700011,14.572889868000061],[121.04677083800004,14.572756287000061],[121.04713873300011,14.572535260000052],[121.04730094200011,14.572441454000057],[121.04771735400004,14.573147172000063],[121.0480364230001,14.573636135000072],[121.04822780000006,14.573896124000044],[121.0484052170001,14.574133386000028],[121.04869528000006,14.574522899000044],[121.0487985530001,14.574661579000065],[121.04822335400002,14.575042714000062],[121.04821695800001,14.575046986000075],[121.0469643350001,14.575883249000071],[121.04676916700009,14.575941271000033],[121.04627531000006,14.576010474000043]]]},"properties":{"brgy_name":"Malamig","brgy_code":"137401016","psgc_10d":"1380500016","city_name":"City of Mandaluyong"}},{"type":"Feature","geometry":{"type":"Polygon","coordinates":[[[121.04444589800005,14.585916141000041],[121.04328309500011,14.586611505000064],[121.04314405900004,14.586630745000036],[121.04289678200007,14.58660377800004],[121.04233908600008,14.586486649000051],[121.04230097000004,14.586479157000042],[121.04160011500005,14.586341410000045],[121.04156334100003,14.586254073000077],[121.04151277800008,14.586139156000058],[121.04113277600004,14.585534963000043],[121.04105311000001,14.585408284000039],[121.04087384000002,14.585132483000052],[121.04099609100001,14.584955618000038],[121.04078813800004,14.584437412000057],[121.04078436800012,14.584428053000067],[121.04057604500008,14.583908889000043],[121.04055139800005,14.58384747100007],[121.04014759300003,14.582841216000077],[121.0394570200001,14.581120351000038],[121.03871281300007,14.581335623000029],[121.03812222800002,14.579567669000028],[121.03765712500001,14.579754505000039],[121.03736082900002,14.579172997000057],[121.03734323500009,14.579123383000024],[121.03837267800009,14.578873946000044],[121.03838511400011,14.578870272000074],[121.03841240400004,14.578862207000043],[121.03841277200002,14.578862098000059],[121.03841774200009,14.578860629000076],[121.03851135800005,14.578832962000035],[121.04154551100009,14.577936224000041],[121.04247172900011,14.578202266000062],[121.04258182600006,14.578079813000045],[121.04274710700008,14.578137801000025],[121.04282078200004,14.578171805000068],[121.04359987200007,14.578603230000056],[121.04423342600012,14.578908417000036],[121.04442463000009,14.578489174000026],[121.04463998800009,14.578058459000033],[121.04486668000004,14.577514397000073],[121.04514437800003,14.576924997000049],[121.04545041300003,14.576324262000071],[121.04560909800011,14.576182580000022],[121.04571110900008,14.576120239000034],[121.04586200000006,14.576067976000047],[121.04627531000006,14.576010474000043],[121.04636653200009,14.576620717000026],[121.04653324800006,14.576608135000072],[121.04667165400008,14.576614426000049],[121.04677231300002,14.57663959100006],[121.04690128200002,14.576715085000046],[121.04728189800005,14.577004479000038],[121.04638231300009,14.578404281000076],[121.04599688600001,14.579009951000046],[121.04566101500006,14.579540371000064],[121.04651420400012,14.579455325000026],[121.04703754500008,14.579372396000053],[121.04762271700008,14.579301066000028],[121.04746487000011,14.579548598000031],[121.04714200300009,14.580004200000076],[121.04688500000009,14.580342976000054],[121.04660200000001,14.580692976000023],[121.04645700000003,14.580913976000033],[121.04630613400002,14.581137825000042],[121.04620568600001,14.581295672000067],[121.04626667200012,14.581475043000069],[121.04632765800011,14.581640064000055],[121.04638505700007,14.581830197000045],[121.04647833000001,14.582102841000051],[121.04654290300005,14.582203289000063],[121.04659671500008,14.582325261000051],[121.0465859520001,14.582526157000075],[121.04652855400002,14.582927948000076],[121.04591510500006,14.584018524000044],[121.04548102700005,14.584761120000053],[121.04541286600011,14.584897442000056],[121.04444589800005,14.585916141000041]]]},"properties":{"brgy_name":"Mauway","brgy_code":"137401017","psgc_10d":"1380500017","city_name":"City of Mandaluyong"}},{"type":"Feature","geometry":{"type":"Polygon","coordinates":[[[121.02309382600004,14.581626706000065],[121.02328210500002,14.581351220000045],[121.02304377900009,14.581263469000078],[121.02264555800002,14.581118953000043],[121.02163786600011,14.580996958000071],[121.02164460300003,14.580899113000044],[121.02089960400008,14.580893579000076],[121.02091027900008,14.581287535000058],[121.02090796400012,14.581638345000044],[121.02091949800001,14.581892096000047],[121.02093103200002,14.582151614000054],[121.02097716900005,14.582313092000049],[121.02101177100008,14.582486105000044],[121.02106367500005,14.582670651000058],[121.02117217800003,14.583028643000034],[121.01962518800008,14.584056282000063],[121.01907110500008,14.583277934000023],[121.01872218000005,14.582796139000038],[121.01832725200006,14.58227514400005],[121.01821426100003,14.58213861400003],[121.01804948300003,14.581978544000037],[121.01783691500009,14.581796864000069],[121.01731975400003,14.581380636000063],[121.01722088700001,14.581272354000077],[121.01712672800011,14.581149948000075],[121.01707494100003,14.581060497000067],[121.01704669300011,14.580975754000065],[121.01704198600009,14.580763897000054],[121.01706081700002,14.580486129000064],[121.01709848100006,14.580264856000042],[121.01713614400001,14.580052999000031],[121.01716439200004,14.579921177000074],[121.01723501100003,14.579737567000052],[121.01761120300011,14.579408116000025],[121.01796360700007,14.579186671000059],[121.01918448000004,14.578447046000065],[121.02127098500011,14.57719976900006],[121.02192090100004,14.577921101000072],[121.02216113700001,14.578191982000021],[121.02267617000007,14.578426608000029],[121.02464881100002,14.578466530000071],[121.02481925200004,14.578473086000031],[121.02505524800006,14.578466530000071],[121.0255272390001,14.578499307000072],[121.02568793500006,14.578490435000049],[121.02577479900003,14.578559926000025],[121.02587655400009,14.578619490000051],[121.02598327300007,14.578669126000023],[121.02623393700003,14.578758472000061],[121.02643402400008,14.578817542000024],[121.02637132600012,14.578988536000054],[121.02623822600003,14.579391988000054],[121.02619488500011,14.579547386000058],[121.02613084400002,14.579807200000062],[121.02584288900005,14.580449990000034],[121.02566258900004,14.580822528000056],[121.02549422400011,14.581160005000072],[121.02509689400006,14.581387435000067],[121.02488125900004,14.581561620000059],[121.02442688300005,14.581730871000048],[121.02397305900001,14.581844602000047],[121.02335610600005,14.581977966000068],[121.02309382600004,14.581626706000065]]]},"properties":{"brgy_name":"Namayan","brgy_code":"137401018","psgc_10d":"1380500018","city_name":"City of Mandaluyong"}},{"type":"Feature","geometry":{"type":"Polygon","coordinates":[[[121.03195981200008,14.586125770000024],[121.03110795600003,14.585732714000073],[121.03071445100011,14.586170318000029],[121.03002412100011,14.586972593000041],[121.02953904500009,14.586591964000036],[121.02901225200003,14.586311007000063],[121.02860997300002,14.586093905000041],[121.02848865100009,14.58604920700003],[121.02836413600005,14.58606517100003],[121.0281885390001,14.586106675000053],[121.02792993100002,14.586164144000065],[121.02789481200011,14.586148180000066],[121.02787246300011,14.586116253000057],[121.02785649900011,14.585972583000057],[121.0278501140001,14.58576505800005],[121.0278437290001,14.585487294000075],[121.0278533070001,14.585298926000064],[121.02787884800011,14.585168026000076],[121.02724031100001,14.584839179000028],[121.02754361600012,14.584382625000046],[121.0275638170001,14.58434829600003],[121.02769368800011,14.584131097000068],[121.0278533070001,14.583868602000052],[121.02726266000002,14.583536563000052],[121.02711242800001,14.583453047000035],[121.02697212500004,14.583364158000052],[121.02662832400006,14.583199507000074],[121.02673278000009,14.582932584000048],[121.02689888100008,14.582475319000025],[121.02695052900003,14.582341425000038],[121.02697003600008,14.582214629000077],[121.02690176100009,14.582136601000059],[121.02678692100005,14.582046097000045],[121.02685044100008,14.581922585000029],[121.02686808500005,14.581841421000036],[121.0268610280001,14.581753198000058],[121.02687161400002,14.581619100000069],[121.02693513400004,14.581432068000026],[121.0269668950001,14.58132973000005],[121.02701277000006,14.581252094000035],[121.02711510900008,14.581195631000071],[121.02720686000009,14.581132111000045],[121.0272986120001,14.580998013000055],[121.0273374300001,14.580888617000028],[121.02736566100009,14.58080039400005],[121.02734426600011,14.580705633000036],[121.0273299480001,14.580544560000021],[121.0273422140001,14.580459046000044],[121.02736932200003,14.580397804000029],[121.02741423900011,14.580354283000077],[121.02750534000006,14.580311898000048],[121.02758408700004,14.580254627000045],[121.02767715200002,14.580165141000066],[121.0277415810001,14.580100712000046],[121.02786603100003,14.580026897000039],[121.02801719600006,14.579871629000024],[121.02809236400003,14.579800041000055],[121.02816753200011,14.579696238000054],[121.02829493500008,14.579530064000039],[121.02884145200005,14.580532011000059],[121.0289271800001,14.580679357000065],[121.02934510400007,14.58138393400003],[121.02972552300002,14.582048327000052],[121.0299371640001,14.582436783000048],[121.03032026200003,14.583133324000073],[121.03045957000006,14.583390508000036],[121.03073014900008,14.58387540700005],[121.03097929600006,14.584314764000055],[121.03150170200001,14.585257773000023],[121.03195981200008,14.586125770000024]]]},"properties":{"brgy_name":"New Zañiga","brgy_code":"137401019","psgc_10d":"1380500019","city_name":"City of Mandaluyong"}},{"type":"Feature","geometry":{"type":"Polygon","coordinates":[[[121.02407613800005,14.585966163000023],[121.02392105600006,14.585973026000033],[121.02379245800012,14.585982009000077],[121.02343398800008,14.586036025000055],[121.02324738800007,14.585957457000063],[121.02318355000011,14.585869067000033],[121.0231589980001,14.585765945000048],[121.02330140400011,14.585417297000049],[121.02317864000008,14.58527489100004],[121.02307551800004,14.585215964000042],[121.02282222600002,14.58511048400004],[121.02272958100002,14.585013811000067],[121.02260874000001,14.585086316000059],[121.02249595500007,14.585098400000049],[121.02241136600003,14.585050064000029],[121.02231872100003,14.585025896000047],[121.02226635600005,14.584941307000065],[121.02228649600011,14.584828521000077],[121.02239525400012,14.584691568000039],[121.02236705700011,14.584550586000034],[121.02231872100003,14.584482110000067],[121.02225830000009,14.584401549000063],[121.02225024400002,14.58428473500004],[121.02222607600004,14.584175978000076],[121.0221661490001,14.584061955000038],[121.02217341200003,14.583913434000067],[121.02220322100004,14.583638275000055],[121.02234621300011,14.583495283000047],[121.02238328500005,14.583283443000028],[121.0222950000001,14.583151976000067],[121.02218100000005,14.583002976000046],[121.02254700000003,14.582030976000055],[121.02288750100001,14.581570577000036],[121.02289350500007,14.581561075000025],[121.02309382600004,14.581626706000065],[121.02335610600005,14.581977966000068],[121.02397305900001,14.581844602000047],[121.02442688300005,14.581730871000048],[121.02488125900004,14.581561620000059],[121.02509689400006,14.581387435000067],[121.02549422400011,14.581160005000072],[121.02566258900004,14.580822528000056],[121.02584288900005,14.580449990000034],[121.02613084400002,14.579807200000062],[121.02619488500011,14.579547386000058],[121.02623822600003,14.579391988000054],[121.02637132600012,14.578988536000054],[121.02643402400008,14.578817542000024],[121.0265394700001,14.578549652000049],[121.02656393900008,14.578472849000036],[121.02684259500006,14.577764598000044],[121.02703312500012,14.577293097000052],[121.02723677600011,14.577615348000052],[121.02738139500002,14.57788247700006],[121.02747256400005,14.578047537000032],[121.02747954100005,14.578060101000062],[121.02790380100009,14.578828165000061],[121.02797345500005,14.578962116000071],[121.02829493500008,14.579530064000039],[121.02816753200011,14.579696238000054],[121.02809236400003,14.579800041000055],[121.02801719600006,14.579871629000024],[121.02786603100003,14.580026897000039],[121.0277415810001,14.580100712000046],[121.02767715200002,14.580165141000066],[121.02758408700004,14.580254627000045],[121.02750534000006,14.580311898000048],[121.02741423900011,14.580354283000077],[121.02736932200003,14.580397804000029],[121.0273422140001,14.580459046000044],[121.0273299480001,14.580544560000021],[121.02734426600011,14.580705633000036],[121.02736566100009,14.58080039400005],[121.0273374300001,14.580888617000028],[121.0272986120001,14.580998013000055],[121.02720686000009,14.581132111000045],[121.02711510900008,14.581195631000071],[121.02701277000006,14.581252094000035],[121.0269668950001,14.58132973000005],[121.02693513400004,14.581432068000026],[121.02687161400002,14.581619100000069],[121.0268610280001,14.581753198000058],[121.02686808500005,14.581841421000036],[121.02685044100008,14.581922585000029],[121.02678692100005,14.582046097000045],[121.02690176100009,14.582136601000059],[121.02697003600008,14.582214629000077],[121.02695052900003,14.582341425000038],[121.02689888100008,14.582475319000025],[121.02673278000009,14.582932584000048],[121.02662832400006,14.583199507000074],[121.02661240600003,14.583255008000037],[121.02630354300004,14.583700420000071],[121.02595613700009,14.584249941000053],[121.02594270800012,14.584296405000032],[121.02584641800001,14.584417821000045],[121.02569950800012,14.584581859000025],[121.0255616180001,14.584725950000063],[121.02545784900008,14.584860190000029],[121.02543308100007,14.584889743000076],[121.02540225100006,14.584914896000043],[121.0253372410001,14.584932795000043],[121.02529366600004,14.584926374000077],[121.02529011700005,14.584824183000023],[121.02518905700003,14.584831805000022],[121.02512883700001,14.58483635500005],[121.02510958700009,14.584893486000055],[121.02509315000009,14.584966694000059],[121.02508153200006,14.585015095000074],[121.02506764400005,14.585052164000047],[121.02504573400006,14.585082600000021],[121.02497542300011,14.585099662000061],[121.02489937100006,14.585104490000049],[121.02486073700004,14.585092450000047],[121.02483092000011,14.585065148000069],[121.02480247300002,14.58502439800003],[121.02477889000011,14.58497213000004],[121.02477423900007,14.58496129200006],[121.02477426200005,14.584959724000043],[121.02476740400004,14.584949044000041],[121.02474212600009,14.584926647000032],[121.02469581300011,14.584902723000027],[121.02465915400001,14.584892034000063],[121.02462701900004,14.584892146000072],[121.02459907700006,14.584894204000022],[121.02457931200001,14.584898206000048],[121.02454866200003,14.584920055000055],[121.02451772500001,14.584947361000047],[121.02449645100012,14.584983977000036],[121.02448114000003,14.585003893000078],[121.02444978500012,14.585045330000071],[121.02442187700001,14.585094166000033],[121.02441580300001,14.585118546000047],[121.02440463300002,14.585165443000051],[121.02440228500006,14.58521120000006],[121.02440386900003,14.585245919000045],[121.02441487100009,14.585303681000028],[121.02446117300008,14.585365417000048],[121.02448560400001,14.585413967000022],[121.02448972100001,14.585433625000064],[121.02448109500006,14.585470709000049],[121.02447325800006,14.585508016000063],[121.02443588400001,14.585586130000024],[121.02442083900007,14.585606873000074],[121.02440979300002,14.585614357000054],[121.02437391700005,14.585627171000056],[121.02435041800004,14.585632510000039],[121.02429199100004,14.585636150000028],[121.02424383700009,14.585637611000038],[121.02415900700009,14.585671498000067],[121.02409060100001,14.585727692000034],[121.02406567100002,14.585754876000067],[121.02404231000003,14.585786047000056],[121.02402442300001,14.585818204000077],[121.02402290600003,14.585870488000069],[121.02403627500007,14.585911230000022],[121.02407038000001,14.585961102000056],[121.02407613800005,14.585966163000023]]]},"properties":{"brgy_name":"Old Zañiga","brgy_code":"137401020","psgc_10d":"1380500020","city_name":"City of Mandaluyong"}},{"type":"Feature","geometry":{"type":"Polygon","coordinates":[[[121.02695740900003,14.590677855000024],[121.02691600300011,14.590714089000073],[121.02670391800007,14.590975112000024],[121.0265370510001,14.591182576000051],[121.02642869500005,14.591294216000051],[121.02631023900005,14.591388763000054],[121.02611359100001,14.591545466000071],[121.02604023200001,14.591608071000053],[121.02581698900008,14.591787445000023],[121.02578961200004,14.591764216000058],[121.02562693100003,14.591623226000024],[121.02542086900007,14.591493081000067],[121.02516600300009,14.591287019000049],[121.0248135280001,14.590977926000051],[121.02440140300007,14.590668832000063],[121.02399470100011,14.590289244000076],[121.02316090300008,14.58963581200004],[121.02275564600006,14.589328393000073],[121.02251647700007,14.58908120600006],[121.02243423500011,14.588993027000072],[121.02273647700008,14.588841635000051],[121.02286481900001,14.588777349000054],[121.02300721500001,14.588696898000023],[121.02310354500003,14.588628905000064],[121.02323291300002,14.588527624000051],[121.0234924670001,14.588245500000028],[121.02367561200003,14.588024992000044],[121.02395626200007,14.587607751000064],[121.02416748600001,14.58773104900007],[121.02431565300003,14.587819417000048],[121.02447440200001,14.587903201000074],[121.02478087600002,14.588046516000077],[121.02504545900001,14.588178808000066],[121.02525271500008,14.588255977000074],[121.02553934600007,14.588364015000025],[121.02589432700006,14.588494101000038],[121.02662192800005,14.588727816000073],[121.02691234200006,14.588801748000037],[121.02691234200006,14.589219032000074],[121.02691235200007,14.589603489000069],[121.02690900400012,14.589896700000054],[121.02691067300009,14.59030229900003],[121.02692903400009,14.590494250000063],[121.02694405600005,14.590616097000066],[121.02695740900003,14.590677855000024]]]},"properties":{"brgy_name":"Pag-asa","brgy_code":"137401021","psgc_10d":"1380500021","city_name":"City of Mandaluyong"}},{"type":"Feature","geometry":{"type":"Polygon","coordinates":[[[121.04635974700011,14.587226228000077],[121.04489015800004,14.587979054000073],[121.04320196900005,14.588620334000041],[121.04213188100005,14.588998921000041],[121.04157559000009,14.589161172000047],[121.04014623100011,14.589497265000034],[121.03987967500007,14.589512717000048],[121.03822625400005,14.589470223000035],[121.03785153000001,14.589470223000035],[121.03706857300006,14.589442094000049],[121.03734661700003,14.588802594000072],[121.0375238690001,14.58842723500004],[121.03766984200001,14.588114436000069],[121.03780076900011,14.587797648000048],[121.0378322140001,14.587692830000037],[121.03813209000009,14.587676518000023],[121.03888684900005,14.587646824000046],[121.03964402300005,14.587623645000065],[121.03970583400007,14.587600467000073],[121.0401530370001,14.587276864000046],[121.04048618600007,14.587020997000025],[121.04088196400005,14.586748016000058],[121.04091404400003,14.586728607000055],[121.04115537400003,14.58656981200005],[121.04120175600008,14.586542960000031],[121.04126766700006,14.58649901900003],[121.04131404900011,14.586469725000029],[121.04136775400002,14.586433108000051],[121.04143854800009,14.58638916700005],[121.04149225300011,14.586359873000049],[121.04153695900004,14.586329496000076],[121.04160011500005,14.586341410000045],[121.04230097000004,14.586479157000042],[121.04233908600008,14.586486649000051],[121.04289678200007,14.58660377800004],[121.04314405900004,14.586630745000036],[121.04328309500011,14.586611505000064],[121.04444589800005,14.585916141000041],[121.04599332900011,14.586982796000029],[121.04635974700011,14.587226228000077]]]},"properties":{"brgy_name":"Pleasant Hills","brgy_code":"137401023","psgc_10d":"1380500023","city_name":"City of Mandaluyong"}},{"type":"Feature","geometry":{"type":"Polygon","coordinates":[[[121.03734323500009,14.579123383000024],[121.03656662200001,14.579327415000023],[121.03643710100005,14.579438892000042],[121.03635361500005,14.579456937000032],[121.03624508600001,14.579519066000046],[121.03607250700009,14.579572892000044],[121.03605434300005,14.579578534000063],[121.03603307600008,14.579585136000048],[121.03600886700008,14.579592649000062],[121.03598321700008,14.579600611000046],[121.03595408100011,14.579609657000049],[121.03594879200011,14.579611299000021],[121.03508610600011,14.580005423000046],[121.03494902400007,14.580067498000062],[121.03477624000004,14.580133528000033],[121.0338469830001,14.580993775000024],[121.03358920500011,14.581248522000067],[121.03260874400007,14.582229811000047],[121.03120408200004,14.583367512000052],[121.03120190400011,14.583363604000056],[121.03106095300006,14.583101852000027],[121.03103021300001,14.583044768000036],[121.03004050200002,14.581208504000074],[121.0298525290001,14.580860296000026],[121.02917339600003,14.579691979000074],[121.02888977300006,14.57918978500004],[121.0286529870001,14.578789070000028],[121.02854109900011,14.578609529000062],[121.02826268100011,14.578096927000047],[121.02812477300006,14.577836722000029],[121.02803630300002,14.57768840600005],[121.02790880300006,14.57730070100007],[121.02787497600002,14.577149783000038],[121.02786717000004,14.577001467000059],[121.02784895600007,14.576832334000073],[121.02783854800009,14.576642385000071],[121.02785983400008,14.576433386000076],[121.02787497600002,14.576285905000077],[121.02790620100006,14.576093354000022],[121.02798686400001,14.575866976000043],[121.02812217100006,14.575578149000023],[121.02824967100003,14.57536218000007],[121.02851247700005,14.574971873000038],[121.02868941600002,14.574815750000027],[121.02886115100011,14.574651822000021],[121.02904069200008,14.574506107000047],[121.02932691600006,14.57430314800007],[121.03009972300003,14.573735903000056],[121.0303417130001,14.573561566000024],[121.03075283600003,14.573246719000053],[121.03105987700008,14.573033351000049],[121.03129926500003,14.572856412000021],[121.03169477600011,14.572551973000031],[121.03201222500002,14.572315187000072],[121.03222038800004,14.572133044000054],[121.03253783700006,14.571885850000058],[121.03275640900006,14.571740136000074],[121.03328982800008,14.571352431000037],[121.03410206700005,14.57074132200006],[121.03425413500008,14.570935190000057],[121.03439213500008,14.571012936000045],[121.03457190800009,14.571105647000024],[121.0348794250001,14.571238931000039],[121.03519517400002,14.571391578000032],[121.03527254300002,14.571420852000074],[121.03533192200007,14.571475654000039],[121.03535827600001,14.571512859000052],[121.03537692300006,14.571565655000029],[121.03553121900006,14.571531776000029],[121.0358449690001,14.571679363000044],[121.03549986200005,14.572281792000069],[121.03557261200001,14.572838837000063],[121.0355873630001,14.572998098000028],[121.03561405300002,14.573265880000065],[121.03563978200009,14.573431843000037],[121.03566553200005,14.573543959000062],[121.03586934600003,14.573665548000065],[121.03642716900004,14.573263582000038],[121.03681512800006,14.573362965000058],[121.03697903600005,14.573440416000039],[121.03735547200006,14.572724445000063],[121.03740099600009,14.572778878000065],[121.03786196700003,14.573335687000053],[121.03852197900005,14.57412570200006],[121.03915600000005,14.57488797600007],[121.03991700400002,14.57579073200003],[121.04068987400001,14.575275810000051],[121.04104691400005,14.575791535000064],[121.04145496000001,14.576329930000043],[121.04211803500004,14.577219697000032],[121.04266209700006,14.577990451000062],[121.04274710700008,14.578137801000025],[121.04258182600006,14.578079813000045],[121.04247172900011,14.578202266000062],[121.04154551100009,14.577936224000041],[121.03851135800005,14.578832962000035],[121.03841774200009,14.578860629000076],[121.03841277200002,14.578862098000059],[121.03841240400004,14.578862207000043],[121.03838511400011,14.578870272000074],[121.03837267800009,14.578873946000044],[121.03734323500009,14.579123383000024]]]},"properties":{"brgy_name":"Plainview","brgy_code":"137401022","psgc_10d":"1380500022","city_name":"City of Mandaluyong"}},{"type":"Feature","geometry":{"type":"Polygon","coordinates":[[[121.03002412100011,14.586972593000041],[121.03022087400007,14.58716425700004],[121.02997323700004,14.587335567000025],[121.02986382100005,14.58741989300006],[121.02978294800005,14.587491296000053],[121.02949741000009,14.587736267000025],[121.02937322000002,14.587835619000032],[121.02925967500005,14.587924325000074],[121.02911419600002,14.588037870000051],[121.02896233700005,14.588166676000071],[121.02853999800004,14.588502512000048],[121.02821603500001,14.588777287000028],[121.02803901900006,14.588929086000064],[121.02788189500006,14.58906393500007],[121.02779197600012,14.589037096000027],[121.0276756940001,14.588997720000066],[121.02753826800006,14.588953639000067],[121.02715770500004,14.588858499000025],[121.02691234200006,14.588801748000037],[121.02662192800005,14.588727816000073],[121.02589432700006,14.588494101000038],[121.02553934600007,14.588364015000025],[121.02525271500008,14.588255977000074],[121.02504545900001,14.588178808000066],[121.02478087600002,14.588046516000077],[121.02447440200001,14.587903201000074],[121.02431565300003,14.587819417000048],[121.02416748600001,14.58773104900007],[121.02395626200007,14.587607751000064],[121.0241177690001,14.58734823900005],[121.02426691100004,14.587034709000022],[121.0243408450001,14.586812017000057],[121.0243568620001,14.58677562400004],[121.02438077900001,14.586720717000048],[121.02454694800008,14.586634483000068],[121.02453709500003,14.586292642000046],[121.02460249800004,14.586244030000046],[121.02461725400008,14.586160738000046],[121.02461905000007,14.586146835000022],[121.02461896600005,14.586124718000065],[121.02461126600008,14.586109220000026],[121.02458546700007,14.586084914000025],[121.02455559500004,14.586068056000045],[121.02435500000001,14.586004976000027],[121.02414013900011,14.585980178000057],[121.02410482000005,14.585974708000037],[121.02408471700005,14.585973781000064],[121.02407613800005,14.585966163000023],[121.02407038000001,14.585961102000056],[121.02403627500007,14.585911230000022],[121.02402290600003,14.585870488000069],[121.02402442300001,14.585818204000077],[121.02404231000003,14.585786047000056],[121.02406567100002,14.585754876000067],[121.02409060100001,14.585727692000034],[121.02415900700009,14.585671498000067],[121.02424383700009,14.585637611000038],[121.02429199100004,14.585636150000028],[121.02435041800004,14.585632510000039],[121.02437391700005,14.585627171000056],[121.02440979300002,14.585614357000054],[121.02442083900007,14.585606873000074],[121.02443588400001,14.585586130000024],[121.02447325800006,14.585508016000063],[121.02448109500006,14.585470709000049],[121.02448972100001,14.585433625000064],[121.02448560400001,14.585413967000022],[121.02446117300008,14.585365417000048],[121.02441487100009,14.585303681000028],[121.02440386900003,14.585245919000045],[121.02440228500006,14.58521120000006],[121.02440463300002,14.585165443000051],[121.02441580300001,14.585118546000047],[121.02442187700001,14.585094166000033],[121.02444978500012,14.585045330000071],[121.02448114000003,14.585003893000078],[121.02449645100012,14.584983977000036],[121.02451772500001,14.584947361000047],[121.02454866200003,14.584920055000055],[121.02457931200001,14.584898206000048],[121.02459907700006,14.584894204000022],[121.02462701900004,14.584892146000072],[121.02465915400001,14.584892034000063],[121.02469581300011,14.584902723000027],[121.02474212600009,14.584926647000032],[121.02476740400004,14.584949044000041],[121.02477426200005,14.584959724000043],[121.02477423900007,14.58496129200006],[121.02477889000011,14.58497213000004],[121.02480247300002,14.58502439800003],[121.02483092000011,14.585065148000069],[121.02486073700004,14.585092450000047],[121.02489937100006,14.585104490000049],[121.02497542300011,14.585099662000061],[121.02504573400006,14.585082600000021],[121.02506764400005,14.585052164000047],[121.02508153200006,14.585015095000074],[121.02509315000009,14.584966694000059],[121.02510958700009,14.584893486000055],[121.02512883700001,14.58483635500005],[121.02518905700003,14.584831805000022],[121.02529011700005,14.584824183000023],[121.02529366600004,14.584926374000077],[121.0253372410001,14.584932795000043],[121.02540225100006,14.584914896000043],[121.02543308100007,14.584889743000076],[121.02545784900008,14.584860190000029],[121.0255616180001,14.584725950000063],[121.02569950800012,14.584581859000025],[121.02584641800001,14.584417821000045],[121.02594270800012,14.584296405000032],[121.02595613700009,14.584249941000053],[121.02630354300004,14.583700420000071],[121.02661240600003,14.583255008000037],[121.02662832400006,14.583199507000074],[121.02697212500004,14.583364158000052],[121.02711242800001,14.583453047000035],[121.02726266000002,14.583536563000052],[121.0278533070001,14.583868602000052],[121.02769368800011,14.584131097000068],[121.0275638170001,14.58434829600003],[121.02754361600012,14.584382625000046],[121.02724031100001,14.584839179000028],[121.02787884800011,14.585168026000076],[121.0278533070001,14.585298926000064],[121.0278437290001,14.585487294000075],[121.0278501140001,14.58576505800005],[121.02785649900011,14.585972583000057],[121.02787246300011,14.586116253000057],[121.02789481200011,14.586148180000066],[121.02792993100002,14.586164144000065],[121.0281885390001,14.586106675000053],[121.02836413600005,14.58606517100003],[121.02848865100009,14.58604920700003],[121.02860997300002,14.586093905000041],[121.02901225200003,14.586311007000063],[121.02953904500009,14.586591964000036],[121.03002412100011,14.586972593000041]]]},"properties":{"brgy_name":"Poblacion","brgy_code":"137401024","psgc_10d":"1380500024","city_name":"City of Mandaluyong"}},{"type":"Feature","geometry":{"type":"Polygon","coordinates":[[[121.03120408200004,14.583367512000052],[121.0317067520001,14.584278789000052],[121.03295767600002,14.586563754000053],[121.03279298200005,14.586511547000043],[121.03238005200001,14.586331747000031],[121.03221272400003,14.586260400000072],[121.03195981200008,14.586125770000024],[121.03150170200001,14.585257773000023],[121.03097929600006,14.584314764000055],[121.03073014900008,14.58387540700005],[121.03045957000006,14.583390508000036],[121.03032026200003,14.583133324000073],[121.0299371640001,14.582436783000048],[121.02972552300002,14.582048327000052],[121.02934510400007,14.58138393400003],[121.0289271800001,14.580679357000065],[121.02884145200005,14.580532011000059],[121.02829493500008,14.579530064000039],[121.02797345500005,14.578962116000071],[121.02790380100009,14.578828165000061],[121.02747954100005,14.578060101000062],[121.02747256400005,14.578047537000032],[121.02738139500002,14.57788247700006],[121.02723677600011,14.577615348000052],[121.02703312500012,14.577293097000052],[121.02710638000008,14.577111950000074],[121.02715648800006,14.576999803000035],[121.0271855850001,14.576941161000036],[121.02741991000005,14.576762401000053],[121.02785983400008,14.576433386000076],[121.02783854800009,14.576642385000071],[121.02784895600007,14.576832334000073],[121.02786717000004,14.577001467000059],[121.02787497600002,14.577149783000038],[121.02790880300006,14.57730070100007],[121.02803630300002,14.57768840600005],[121.02812477300006,14.577836722000029],[121.02826268100011,14.578096927000047],[121.02854109900011,14.578609529000062],[121.0286529870001,14.578789070000028],[121.02888977300006,14.57918978500004],[121.02917339600003,14.579691979000074],[121.0298525290001,14.580860296000026],[121.03004050200002,14.581208504000074],[121.03103021300001,14.583044768000036],[121.03106095300006,14.583101852000027],[121.03120190400011,14.583363604000056],[121.03120408200004,14.583367512000052]]]},"properties":{"brgy_name":"San Jose","brgy_code":"137401025","psgc_10d":"1380500025","city_name":"City of Mandaluyong"}},{"type":"Feature","geometry":{"type":"Polygon","coordinates":[[[121.02703312500012,14.577293097000052],[121.02684259500006,14.577764598000044],[121.02656393900008,14.578472849000036],[121.0265394700001,14.578549652000049],[121.02643402400008,14.578817542000024],[121.02623393700003,14.578758472000061],[121.02598327300007,14.578669126000023],[121.02587655400009,14.578619490000051],[121.02577479900003,14.578559926000025],[121.02568793500006,14.578490435000049],[121.0255272390001,14.578499307000072],[121.02505524800006,14.578466530000071],[121.02481925200004,14.578473086000031],[121.02464881100002,14.578466530000071],[121.02267617000007,14.578426608000029],[121.02216113700001,14.578191982000021],[121.02192090100004,14.577921101000072],[121.02127098500011,14.57719976900006],[121.02202871700001,14.576743429000032],[121.02219106500002,14.576647738000077],[121.02297175000001,14.576199796000026],[121.0240278230001,14.57554607000003],[121.0248770390001,14.57497810600006],[121.02535151200004,14.574675587000058],[121.02566471600005,14.574477711000043],[121.02591647800011,14.574885541000071],[121.0271855850001,14.576941161000036],[121.02715648800006,14.576999803000035],[121.02710638000008,14.577111950000074],[121.02703312500012,14.577293097000052]]]},"properties":{"brgy_name":"Vergara","brgy_code":"137401026","psgc_10d":"1380500026","city_name":"City of Mandaluyong"}},{"type":"Feature","geometry":{"type":"Polygon","coordinates":[[[121.05964876500002,14.599858358000063],[121.05958742000007,14.60026595100004],[121.05936956100004,14.601178464000043],[121.05924493500004,14.601644073000045],[121.05855052600009,14.601408818000039],[121.05807702200002,14.601248850000047],[121.05739174100006,14.601029617000052],[121.05703875200004,14.600910139000064],[121.05667693700002,14.600807730000042],[121.05635924700005,14.600756525000065],[121.05572229800009,14.600749751000023],[121.05479726900012,14.600858935000076],[121.05374712600008,14.601021083000035],[121.05266168300011,14.601200299000027],[121.0517763150001,14.601365661000045],[121.05029665500001,14.600116466000031],[121.04969657300001,14.599612954000065],[121.04897294500006,14.598998497000025],[121.04839051200008,14.598469382000076],[121.04775513100003,14.597914664000029],[121.04715504900003,14.597334344000046],[121.04570779300002,14.596037159000048],[121.0435567290001,14.593996203000074],[121.04378453900006,14.593817134000062],[121.04389415300011,14.593746341000042],[121.04396723000002,14.593693818000077],[121.0441818920001,14.593511127000056],[121.0443257610001,14.593447185000059],[121.04443080900012,14.593415214000061],[121.04456782700004,14.593431199000065],[121.04468429300005,14.593449468000074],[121.04481674400006,14.593483723000077],[121.04490808900005,14.593479156000058],[121.04512731800003,14.593454036000026],[121.04520496200007,14.593419781000023],[121.04523693300007,14.593369541000072],[121.0452620530001,14.593307883000023],[121.04520267900011,14.593193701000075],[121.04515928900003,14.593129759000021],[121.0451501550001,14.593090937000056],[121.04500400200004,14.592885409000075],[121.04498573300009,14.592858006000029],[121.04497203100004,14.592796348000036],[121.04487155100003,14.592684449000046],[121.04481674400006,14.59261594000003],[121.04477335400009,14.592577118000065],[121.04472311400002,14.592540580000048],[121.04468886000006,14.592488056000036],[121.04466374000003,14.592444667000052],[121.04460436500005,14.592337336000071],[121.04459523100002,14.592271111000059],[121.04461578300004,14.592195751000077],[121.04480075800006,14.591962819000059],[121.04484294700001,14.591913617000046],[121.04494234400011,14.591800681000052],[121.04496518000008,14.591736739000055],[121.04499943500002,14.591631692000021],[121.04502912200007,14.591567750000024],[121.04507936200002,14.591453568000077],[121.04510904900008,14.591417030000059],[121.04514102000007,14.591371357000071],[121.04518440900006,14.591339386000072],[121.04523693300007,14.591318833000059],[121.04521181300004,14.591277728000023],[121.04518440900006,14.591222920000064],[121.04515300000003,14.591141976000074],[121.04514301300003,14.591106426000067],[121.04513961200007,14.591073265000034],[121.04513961200007,14.591045206000047],[121.04514981600005,14.591029051000078],[121.0451736230001,14.591019698000025],[121.04520848400011,14.591020548000074],[121.04523909400007,14.591027351000037],[121.0454363560001,14.591091971000026],[121.04549332400006,14.591094522000049],[121.04554434000011,14.591078367000023],[121.04561066100007,14.591046907000077],[121.04569653800002,14.59101417100004],[121.04582918000006,14.59092404300003],[121.04597882700011,14.590813508000053],[121.04602644200008,14.590784599000074],[121.04610636700011,14.590759091000052],[121.04615398200008,14.590755690000037],[121.04619989700006,14.590714877000039],[121.04624411100008,14.590674064000041],[121.04630533000011,14.590629850000028],[121.04645327600008,14.590529519000029],[121.04649579000011,14.590497209000034],[121.04653830300003,14.590480203000027],[121.0465689130001,14.590458096000077],[121.04658591800012,14.590396877000046],[121.04659102000005,14.590242128000057],[121.04659442100001,14.590167305000023],[121.04660462400011,14.590082278000068],[121.04659102000005,14.590066973000035],[121.04657231400006,14.590068673000076],[121.04651959700004,14.590063572000076],[121.04647538300003,14.590065272000061],[121.04639545800001,14.590049968000073],[121.0463240360001,14.590017657000033],[121.04628152200007,14.58994453400004],[121.04623220700012,14.589862909000033],[121.04619309400005,14.589745572000027],[121.04621860200007,14.58970645900007],[121.0463155330001,14.589682652000022],[121.04659782200008,14.589587422000022],[121.04671345800011,14.589553411000054],[121.04674406800007,14.589538106000077],[121.04683079500001,14.589534705000062],[121.0470671700001,14.589495593000038],[121.04710798300005,14.589453079000066],[121.04715899900009,14.589408865000053],[121.04721851800002,14.589361250000024],[121.04721341600009,14.589272823000044],[121.04721362700002,14.589199571000051],[121.04721001500002,14.589162288000068],[121.04717981700003,14.589088196000034],[121.04664595100007,14.588706096000067],[121.04664595100007,14.588647672000036],[121.04659239500006,14.588311735000048],[121.04648041700011,14.587839476000056],[121.04640251800004,14.587464590000025],[121.04635974700011,14.587226228000077],[121.04722048600001,14.586560402000032],[121.04787040100007,14.586047793000034],[121.04848370200011,14.585535183000047],[121.04971565100004,14.584527428000058],[121.05168570700005,14.582900954000024],[121.05244018800011,14.582247821000067],[121.05346868100003,14.581349880000062],[121.05358076900006,14.581235784000057],[121.05451052300009,14.580483108000067],[121.05535056400004,14.579746989000057],[121.05613547000007,14.57903453800003],[121.0571248330001,14.578129807000039],[121.05882330600002,14.580233896000038],[121.05944943000009,14.581041722000066],[121.05987154900004,14.581568914000059],[121.05997170100011,14.581813730000022],[121.06001621300004,14.582114186000069],[121.06000831000006,14.582992793000074],[121.05997722200004,14.58349177100007],[121.05991335800002,14.584392566000076],[121.05987404400003,14.585183891000042],[121.05985340800009,14.585483107000073],[121.05977620200008,14.586838506000049],[121.05970618700007,14.588427765000063],[121.05968237200011,14.589080324000065],[121.05966011600003,14.59007071800005],[121.05728732400007,14.589617128000043],[121.05778911800007,14.591166458000032],[121.05811500000004,14.592153976000077],[121.05840265100005,14.593108666000035],[121.0587364910001,14.594065676000071],[121.05900365200011,14.594861924000043],[121.05937078800002,14.595790518000058],[121.05957074100002,14.59661322900007],[121.0597041740001,14.597530579000022],[121.05975421100004,14.597914198000069],[121.05974800000001,14.598394976000066],[121.0597375320001,14.599081735000027],[121.05968079400009,14.599645546000033],[121.05964876500002,14.599858358000063]]]},"properties":{"brgy_name":"Wack-wack Greenhills","brgy_code":"137401027","psgc_10d":"1380500027","city_name":"City of Mandaluyong"}}]}